{"type": "FeatureCollection", "features": [{"type": "Feature", "properties": {"norad_id": 50032, "name": "COSMOS 1408 DEB", "group": "cosmos-1408-debris", "lat": 8.591653147789879, "lon": -120.30795978563178, "alt_km": 424.270675340249, "timestamp": "2025-12-10T11:33:53.655887+00:00", "meta": {"OBJECT_NAME": "COSMOS 1408 DEB", "OBJECT_ID": "1982-092RU", "EPOCH": "2025-12-10T04:36:37.714752", "MEAN_MOTION": 15.45652808, "ECCENTRICITY": 0.0015042, "INCLINATION": 82.564, "RA_OF_ASC_NODE": 61.1197, "ARG_OF_PERICENTER": 218.3483, "MEAN_ANOMALY": 141.6698, "EPHEMERIS_TYPE": 0, "CLASSIFICATION_TYPE": "U", "NORAD_CAT_ID": 50032, "ELEMENT_SET_NO": 999, "REV_AT_EPOCH": 22564, "BSTAR": 0.00015249, "MEAN_MOTION_DOT": 7.419e-05, "MEAN_MOTION_DDOT": 0}, "tle": {"line1": "1 50032U 82092RU  25344.19210318  .00007419  00000+0  15249-3 0  9998", "line2": "2 50032  82.5640  61.1197 0015042 218.3483 141.6698 15.45652808225641"}}, "geometry": {"type": "Point", "coordinates": [-120.30795978563178, 8.591653147789879]}}, {"type": "Feature", "properties": {"norad_id": 50058, "name": "COSMOS 1408 DEB", "group": "cosmos-1408-debris", "lat": -44.20179526206575, "lon": -101.04707229672975, "alt_km": 388.4596803055074, "timestamp": "2025-12-10T11:33:53.655907+00:00", "meta": {"OBJECT_NAME": "COSMOS 1408 DEB", "OBJECT_ID": "1982-092SW", "EPOCH": "2025-12-09T06:57:57.674304", "MEAN_MOTION": 15.63783016, "ECCENTRICITY": 0.0016385, "INCLINATION": 82.6128, "RA_OF_ASC_NODE": 72.9508, "ARG_OF_PERICENTER": 110.9292, "MEAN_ANOMALY": 249.3723, "EPHEMERIS_TYPE": 0, "CLASSIFICATION_TYPE": "U", "NORAD_CAT_ID": 50058, "ELEMENT_SET_NO": 999, "REV_AT_EPOCH": 22750, "BSTAR": 0.0004022, "MEAN_MOTION_DOT": 0.00037979, "MEAN_MOTION_DDOT": 0}, "tle": {"line1": "1 50058U 82092SW  25343.29025086  .00037979  00000+0  40220-3 0  9993", "line2": "2 50058  82.6128  72.9508 0016385 110.9292 249.3723 15.63783016227501"}}, "geometry": {"type": "Point", "coordinates": [-101.04707229672975, -44.20179526206575]}}, {"type": "Feature", "properties": {"norad_id": 50404, "name": "COSMOS 1408 DEB", "group": "cosmos-1408-debris", "lat": 23.777562215082174, "lon": -139.19467620096017, "alt_km": 645.1270689279072, "timestamp": "2025-12-10T11:33:53.655920+00:00", "meta": {"OBJECT_NAME": "COSMOS 1408 DEB", "OBJECT_ID": "1982-092ADS", "EPOCH": "2025-12-10T01:55:59.645280", "MEAN_MOTION": 15.13181066, "ECCENTRICITY": 0.0173107, "INCLINATION": 82.2033, "RA_OF_ASC_NODE": 217.7549, "ARG_OF_PERICENTER": 208.0506, "MEAN_ANOMALY": 151.1318, "EPHEMERIS_TYPE": 0, "CLASSIFICATION_TYPE": "U", "NORAD_CAT_ID": 50404, "ELEMENT_SET_NO": 999, "REV_AT_EPOCH": 21153, "BSTAR": 0.0036852, "MEAN_MOTION_DOT": 0.00095791, "MEAN_MOTION_DDOT": 0}, "tle": {"line1": "1 50404U 82092ADS 25344.08055145  .00095791  00000+0  36852-2 0  9996", "line2": "2 50404  82.2033 217.7549 0173107 208.0506 151.1318 15.13181066211532"}}, "geometry": {"type": "Point", "coordinates": [-139.19467620096017, 23.777562215082174]}}, {"type": "Feature", "properties": {"norad_id": 50621, "name": "COSMOS 1408 DEB", "group": "cosmos-1408-debris", "lat": -58.079286006183395, "lon": 64.43810430270611, "alt_km": 420.04151441230533, "timestamp": "2025-12-10T11:33:53.655932+00:00", "meta": {"OBJECT_NAME": "COSMOS 1408 DEB", "OBJECT_ID": "1982-092ALR", "EPOCH": "2025-12-09T06:30:05.287392", "MEAN_MOTION": 15.56380529, "ECCENTRICITY": 0.0028746, "INCLINATION": 82.5697, "RA_OF_ASC_NODE": 77.7916, "ARG_OF_PERICENTER": 165.1376, "MEAN_ANOMALY": 195.0731, "EPHEMERIS_TYPE": 0, "CLASSIFICATION_TYPE": "U", "NORAD_CAT_ID": 50621, "ELEMENT_SET_NO": 999, "REV_AT_EPOCH": 22196, "BSTAR": 0.00049841, "MEAN_MOTION_DOT": 0.00035943, "MEAN_MOTION_DDOT": 0}, "tle": {"line1": "1 50621U 82092ALR 25343.27089453  .00035943  00000+0  49841-3 0  9992", "line2": "2 50621  82.5697  77.7916 0028746 165.1376 195.0731 15.56380529221966"}}, "geometry": {"type": "Point", "coordinates": [64.43810430270611, -58.079286006183395]}}]}